[{"OBJECT_NAME":"STARLINK-31406","OBJECT_ID":"2024-036V","EPOCH":"2026-03-09T09:28:19.152768","MEAN_MOTION":15.30195857,"ECCENTRICITY":0.0001213,"INCLINATION":53.1595,"RA_OF_ASC_NODE":66.3225,"ARG_OF_PERICENTER":92.8597,"MEAN_ANOMALY":267.2543,"EPHEMERIS_TYPE":0,"CLASSIFICATION_TYPE":"U","NORAD_CAT_ID":59017,"ELEMENT_SET_NO":999,"REV_AT_EPOCH":11546,"BSTAR":-6.4127324e-5,"MEAN_MOTION_DOT":-2.258e-5,"MEAN_MOTION_DDOT":0},{"OBJECT_NAME":"PHISAT 2","OBJECT_ID":"2024-149C","EPOCH":"2026-03-09T18:55:12.732384","MEAN_MOTION":15.29548632,"ECCENTRICITY":0.00011753,"INCLINATION":97.3806,"RA_OF_ASC_NODE":148.6498,"ARG_OF_PERICENTER":168.623,"MEAN_ANOMALY":191.5037,"EPHEMERIS_TYPE":0,"CLASSIFICATION_TYPE":"U","NORAD_CAT_ID":60470,"ELEMENT_SET_NO":999,"REV_AT_EPOCH":8679,"BSTAR":0.00031420974,"MEAN_MOTION_DOT":8.925e-5,"MEAN_MOTION_DDOT":0}]
